     2.100          NAVIGATION                              RINEX VERSION / TYPE
fic2rin                                 07/30/2014 00:25:25 PGM / RUN BY / DATE
                                                            END OF HEADER
 2 14  7 29 20  0  0.0  .509563833475D-03  .216004991671D-11  .000000000000D+00
     .620000000000D+02 -.733437500000D+02  .474126892145D-08  .187712647621D+01
    -.379048287868D-05  .136525101261D-01  .115390866995D-04  .515365850639D+04
     .244800000000D+06 -.346451997757D-06 -.285385843708D+01 -.670552253723D-07
     .940069536824D+00  .151062500000D+03 -.240146365922D+01 -.812390982202D-08
    -.132862677121D-09  .100000000000D+01  .180300000000D+04  .000000000000D+00
     .240000000000D+01  .000000000000D+00 -.200234353542D-07  .620000000000D+02
     .237606000000D+06  .400000000000D+01
 3 14  7 29 20  0  0.0  .397066585720D-03  .466116034659D-11  .000000000000D+00
     .122000000000D+03 -.578125000000D+02  .535736601294D-08  .190970506350D+01
    -.332295894623D-05  .173093901249D-01  .239722430706D-05  .515381604004D+04
     .244800000000D+06  .119209289551D-06  .225435460235D+01 -.406056642532D-06
     .939032591231D+00  .322281250000D+03  .140826980450D+01 -.849821112746D-08
    -.111433213069D-09  .100000000000D+01  .180300000000D+04  .000000000000D+00
     .485000000000D+01  .000000000000D+00 -.465661287308D-08  .122000000000D+03
     .237606000000D+06  .400000000000D+01
 4 14  7 29 20  0  0.0  .723917037249D-05 -.113686837722D-12  .000000000000D+00
     .840000000000D+02 -.501562500000D+02  .494734893408D-08 -.420367792612D+00
    -.254064798355D-05  .108433692949D-01  .111777335405D-04  .515197779655D+04
     .244800000000D+06 -.633299350739D-07 -.283798771868D+01  .949949026108D-07
     .939074852008D+00  .150656250000D+03  .105605422597D+01 -.837784897104D-08
    -.120004998690D-09  .100000000000D+01  .180300000000D+04  .000000000000D+00
     .240000000000D+01  .000000000000D+00 -.651925802231D-08  .840000000000D+02
     .237606000000D+06  .400000000000D+01
 5 14  7 29 20  0  0.0 -.353944022208D-03  .329691829393D-11  .000000000000D+00
     .460000000000D+02  .465625000000D+02  .496949271360D-08 -.201442179291D+01
     .243820250034D-05  .368115131278D-02  .736117362976D-05  .515364373207D+04
     .244800000000D+06  .167638063431D-07 -.178565205784D+01 -.409781932831D-07
     .946731185920D+00  .231093750000D+03  .302536599487D+00 -.822677124947D-08
     .395373611755D-09  .100000000000D+01  .180300000000D+04  .000000000000D+00
     .240000000000D+01  .000000000000D+00 -.102445483208D-07  .460000000000D+02
     .237606000000D+06  .400000000000D+01
 6 14  7 29 20  0  0.0 -.219931825995D-05 -.181898940355D-11  .000000000000D+00
     .960000000000D+02 -.581562500000D+02  .429982196199D-08 -.218146870574D+01
    -.306963920593D-05  .405049766414D-03  .117011368275D-04  .515357872772D+04
     .244800000000D+06  .745058059692D-08 -.283144017134D+01 -.186264514923D-08
     .961444844380D+00  .152843750000D+03  .218839018518D+01 -.783175479545D-08
    -.122147945095D-09  .100000000000D+01  .180300000000D+04  .000000000000D+00
     .240000000000D+01  .000000000000D+00  .465661287308D-08  .960000000000D+02
     .237606000000D+06  .400000000000D+01
 7 14  7 29 20  0  0.0  .374231487513D-03  .432009983342D-11  .000000000000D+00
     .210000000000D+02  .295000000000D+02  .390551982343D-08  .630446484627D+00
     .159814953804D-05  .772487791255D-02  .113528221846D-04  .515362379837D+04
     .244800000000D+06  .447034835815D-07  .337338757890D+00  .180676579475D-06
     .973319549386D+00  .167531250000D+03 -.281815274097D+01 -.773460789175D-08
    -.142148778210D-09  .100000000000D+01  .180300000000D+04  .000000000000D+00
     .240000000000D+01  .000000000000D+00 -.107102096081D-07  .210000000000D+02
     .237606000000D+06  .400000000000D+01
 8 14  7 29 20  0  0.0  .149728730321D-04  .227373675443D-12  .000000000000D+00
     .169000000000D+03  .395937500000D+02  .343800034937D-08  .265754540920D+00
     .216625630856D-05  .140491223428D-01  .113490968943D-04  .515335062981D+04
     .244800000000D+06  .180676579475D-06  .438121842493D+00  .204890966415D-06
     .996648664497D+00  .180500000000D+03 -.276023585518D+01 -.762067457454D-08
    -.164292557730D-10  .100000000000D+01  .180300000000D+04  .000000000000D+00
     .340000000000D+01  .000000000000D+00 -.419095158577D-08  .169000000000D+03
     .237606000000D+06  .400000000000D+01
10 14  7 29 20  0  0.0 -.135714653879D-03 -.159161572810D-11  .000000000000D+00
     .510000000000D+02  .500000000000D+02  .501306595718D-08 -.184264931237D+01
     .258907675743D-05  .136872389121D-01  .681355595589D-05  .515360297394D+04
     .244800000000D+06  .212341547012D-06 -.176874917466D+01 -.163912773132D-06
     .941520832019D+00  .236875000000D+03  .871052413389D+00 -.811819529828D-08
     .432875173846D-09  .100000000000D+01  .180300000000D+04  .000000000000D+00
     .340000000000D+01  .000000000000D+00 -.279396772385D-08  .510000000000D+02
     .237606000000D+06  .400000000000D+01
11 14  7 29 20  0  0.0 -.509188044816D-03 -.306954461848D-11  .000000000000D+00
     .290000000000D+02 -.818125000000D+02  .626133223819D-08  .769672626446D+00
    -.416673719883D-05  .152645001654D-01  .960007309914D-05  .515371085930D+04
     .244800000000D+06 -.203028321266D-06  .313185793148D+01  .819563865662D-07
     .891426463239D+00  .162406250000D+03  .130821081315D+01 -.910216485599D-08
    -.303226916332D-09  .100000000000D+01  .180300000000D+04  .000000000000D+00
     .240000000000D+01  .000000000000D+00 -.121071934700D-07  .290000000000D+02
     .237606000000D+06  .400000000000D+01
12 14  7 29 20  0  0.0  .221380963922D-03  .261479726760D-11  .000000000000D+00
     .860000000000D+02  .701562500000D+02  .418838874892D-08  .158254586453D+00
     .373274087906D-05  .509962812066D-02  .577419996262D-05  .515357556915D+04
     .244800000000D+06  .502914190292D-07  .140114526911D+01  .428408384323D-07
     .987761593698D+00  .287625000000D+03  .490591968290D+00 -.802747723379D-08
     .424660545959D-09  .100000000000D+01  .180300000000D+04  .000000000000D+00
     .340000000000D+01  .000000000000D+00 -.121071934700D-07  .860000000000D+02
     .237606000000D+06  .400000000000D+01
13 14  7 29 20  0  0.0 -.256081111729D-04 -.386535248253D-11  .000000000000D+00
     .740000000000D+02 -.324062500000D+02  .425231998334D-08  .293707272258D+01
    -.159069895744D-05  .531422346830D-02  .657327473164D-05  .515355422401D+04
     .244800000000D+06 -.372529029846D-08 -.626105117231D+00  .447034835815D-07
     .976903964931D+00  .262156250000D+03  .232380461641D+01 -.785246994404D-08
    -.473591155544D-09  .100000000000D+01  .180300000000D+04  .000000000000D+00
     .240000000000D+01  .000000000000D+00 -.111758708954D-07  .740000000000D+02
     .237606000000D+06  .400000000000D+01
14 14  7 29 20  0  0.0  .149802770466D-03 -.363797880709D-11  .000000000000D+00
     .590000000000D+02 -.366562500000D+02  .434732394063D-08 -.298078367173D+01
    -.180117785931D-05  .780401262455D-02  .601820647717D-05  .515369089508D+04
     .244800000000D+06  .596046447754D-07 -.658409335700D+00 -.819563865662D-07
     .969420730802D+00  .266562500000D+03 -.199479521228D+01 -.790247202682D-08
    -.338585532018D-09  .100000000000D+01  .180300000000D+04  .000000000000D+00
     .340000000000D+01  .000000000000D+00 -.884756445885D-08  .590000000000D+02
     .237606000000D+06  .400000000000D+01
15 14  7 29 20  0  0.0 -.193841755390D-03 -.227373675443D-11  .000000000000D+00
     .690000000000D+02 -.231250000000D+02  .532986486741D-08  .268574510818D+01
    -.123120844364D-05  .636933150236D-02  .484474003315D-05  .515372749901D+04
     .244800000000D+06 -.596046447754D-07 -.772493730836D+00 -.149011611938D-07
     .935911689576D+00  .274375000000D+03  .271931419927D+00 -.848213902942D-08
    -.306798493674D-09  .100000000000D+01  .180300000000D+04  .000000000000D+00
     .240000000000D+01  .000000000000D+00 -.102445483208D-07  .690000000000D+02
     .237606000000D+06  .400000000000D+01
16 14  7 29 20  0  0.0 -.204648356885D-03  .227373675443D-11  .000000000000D+00
     .980000000000D+02  .740625000000D+02  .411874299075D-08 -.195850226574D+01
     .353902578354D-05  .766770297196D-02  .477582216263D-05  .515363048935D+04
     .244800000000D+06  .167638063431D-07  .141973129659D+01 -.987201929092D-07
     .988346463957D+00  .303750000000D+03  .236104518129D+00 -.795676000242D-08
     .487520307178D-09  .100000000000D+01  .180300000000D+04  .000000000000D+00
     .240000000000D+01  .000000000000D+00 -.102445483208D-07  .980000000000D+02
     .237606000000D+06  .400000000000D+01
18 14  7 29 20  0  0.0  .334669835865D-03  .238742359215D-11  .000000000000D+00
     .570000000000D+02  .511562500000D+02  .544522681555D-08 -.132772508410D+01
     .275671482086D-05  .154799794545D-01  .654719769955D-05  .515371357346D+04
     .244800000000D+06  .284984707832D-06 -.179230548826D+01  .296160578728D-06
     .925299020590D+00  .235625000000D+03 -.201901467835D+01 -.851285459456D-08
     .248581783000D-09  .100000000000D+01  .180300000000D+04  .000000000000D+00
     .240000000000D+01  .000000000000D+00 -.107102096081D-07  .570000000000D+02
     .237606000000D+06  .400000000000D+01
19 14  7 29 20  0  0.0 -.470769591630D-03 -.204636307899D-11  .000000000000D+00
     .790000000000D+02 -.842500000000D+02  .465947980032D-08  .258291090710D+01
    -.437907874584D-05  .105592139298D-01  .476837158203D-05  .515363933754D+04
     .244800000000D+06 -.191852450371D-06  .250181766263D+01 -.141561031342D-06
     .966553480124D+00  .292375000000D+03  .475773172834D+00 -.809819446516D-08
    -.233581158164D-09  .100000000000D+01  .180300000000D+04  .000000000000D+00
     .240000000000D+01  .000000000000D+00 -.149011611938D-07  .790000000000D+02
     .237606000000D+06  .400000000000D+01
